# Made by eph2tle, compiled Oct 27 2022 13:44:22
# Run at Wed Nov  2 09:03:49 2022
#
#    The following TLEs (Two-Line Elements) were generated by fitting
# a numerically-integrated ephemeris,  based on the orbit given below,
# to the SDP4/SGP4 models.  Each TLE is good for the interval between
# its epoch and the epoch of the subsequent TLE (usually one day).
# The maximum deviation between the numerically integrated ephemerides
# and the TLE-based ephemeris, in kilometers,  is given for each TLE
# as the "worst residual".
#
#    This fitting is done using the 'eph2tle' code packaged with Find_Orb.
# The code has details on how the TLEs were computed :
#
#    https://github.com/Bill-Gray/find_orb/eph2tle.cpp
#
#    Be warned:  the error given is that between the numerically
# integrated ephems and the TLE model.  There will usually be at
# least some additional difference between the ephems and the actual
# motion of the satellite,  especially if the ephemerides are based
# on a short arc.  If the following orbital elements say something
# like "[based on] 10 observations 2015 Jan. 1-13",  and the TLEs
# are for 2015 May,  the extrapolation may be tenuous at best.  If
# your application requires a specific level of accuracy,  you may
# want to contact me;  I can give you some idea as to the fit of the
# underlying data (and possibly TLEs based on newer data).
#
#   You can usually find the underlying observational data,  and the
# fitted orbit,  residuals,  ephemerides,  and sometimes some comments
# about the object,  among the pages listed at
#
#    https://www.projectpluto.com/pluto/mpecs/pseudo.htm
#
#    WARNING:  for this object,  "normal" TLEs cannot be fitted.  (This
# usually means an object with an hyperbolic or nearly-parabolic orbit.)
# For this and similar cases,   an alternative model is used,  in which
# most of the traditional TLE data is replaced by six signed 8-digit hex
# numbers.  These six numbers are a state vector,  numerically integrated
# using a simplified force model.  This is necessary for objects at L2 or
# L1,  and sometimes for objects in high orbits where the SDP4/SGP4 model
# fails.  Some documentation is in 'get_el.cpp' in the source code at
# https://www.github.com/Bill-Gray/sat_code ; look for 'hex' in that file,
# with the actual integration done in 'sdp4.cpp'.  But be aware:  it's my
# own extension,  doesn't work with other code,  and is therefore used
# only when necessary.
#
#    Also,  if you use a TLE outside the "correct" time range (between
# its MJD and that of the next TLE),  all bets are off.  I've carefully
# computed and minimized the worst error over the "correct" time frame,
# but the ephemeris may (or may not) diverge wildly outside of it.
#
# Ephem range: 59881.000000 59911.000000 1.000000
# Created Wed Nov  2 09:03:35 2022
# Ephemeris start: 29 Oct 2022  0:00:00
# Ephemeris end:   28 Nov 2022  0:00:00
# Times are all TDT
# Positions/velocities are in ecliptic J2000
# Orbital elements:  Photon
#    Perigee 2022 Oct 29.26191 +/- 0.000844 TT =  6:17:09 (JD 2459881.76191)
# Epoch 2022 Nov  2.0 TT = JDT 2459885.5                           Find_Orb
# M  15.11173220 +/- 0.16             (J2000 equator)
# n   4.04263621 +/- 0.0442           Peri.  277.73582 +/- 0.10
# a842352.232 +/- 6142                Node    20.77141 +/- 0.0013
# e   0.8138869 +/- 0.00112           Incl.   13.15769 +/- 0.00023
# P  89.05d                  H 31.57  G  0.15   U 10.6
# q 156772.715 +/- 207    Q 0.01021359 +/- 8.08e-5
# 12 of 14 observations 2022 Oct. 31-Nov. 2; mean residual 0".233
#
# 1 NoradU COSPAR   Epoch.epoch     dn/dt/2  d2n/dt2/6 BSTAR    T El# C
# 2 NoradU Inclina RAAscNode Eccent  ArgPeri MeanAno  MeanMotion Rev# C

# Worst residual: 0.62 km
# MJD 59881.000000 (2022 Oct 29  0:00)
Photon
1 52916U 22070C   22301.99919926 +000HI39G -002IJWF4 -000L008VH 17676
2 52916                          +000C08EW +00043EVW -00002N2L     05

# Worst residual: 0.43 km
# MJD 59882.000000 (2022 Oct 30  0:00)
Photon
1 52916U 22070C   22302.99919926 +002V1KCD -000RFEYZ -000E7KQHH 17671
2 52916                          +00070IR5 +0009D9N1 +0001GMHM     07

# Worst residual: 0.27 km
# MJD 59883.000000 (2022 Oct 31  0:00)
Photon
1 52916U 22070C   22303.99919926 +003Y7HL2 +001ID4I4 +0000C1DBH 17672
2 52916                          +0002L5NL +00094Y9H +0001RQAA     05

# Worst residual: 0.45 km
# MJD 59884.000000 (2022 Nov  1  0:00)
Photon
1 52916U 22070C   22304.99919926 +004AO1PN +003K83U5 +000FCHHZH 17675
2 52916                          +0000JVXK +0007YM21 +0001ONJC     06

# Worst residual: 0.54 km
# MJD 59885.000000 (2022 Nov  2  0:00)
Photon
1 52916U 22070C   22305.99919926 +004AMF56 +005CGVAC +000TC196H 17678
2 52916                          -0000GG7J +0006Y4S0 +0001JWI3     07

# Worst residual: 0.57 km
# MJD 59886.000000 (2022 Nov  3  0:00)
Photon
1 52916U 22070C   22306.99919926 +004412T2 +006WWIGY +00167MV4H 17670
2 52916                          -00010OS6 +000659RY +0001FI9Z     03

# Worst residual: 0.56 km
# MJD 59887.000000 (2022 Nov  4  0:00)
Photon
1 52916U 22070C   22307.99919926 +003TN5D4 +008B4VG7 +001I3SFHH 17679
2 52916                          -0001CWLX +0005I4OE +0001BP1D     08

# Worst residual: 0.44 km
# MJD 59888.000000 (2022 Nov  5  0:00)
Photon
1 52916U 22070C   22308.99919926 +003GWPKW +009KBX7A +001T5AAAH 17670
2 52916                          -0001KN8E +0004Z2OD +00018E5H     05

# Worst residual: 0.47 km
# MJD 59889.000000 (2022 Nov  6  0:00)
Photon
1 52916U 22070C   22309.99919926 +0032O43E +00APBRGS +0023G2J1H 17676
2 52916                          -0001PNAR +0004IZ3E +00015HUQ     00

# Worst residual: 0.45 km
# MJD 59890.000000 (2022 Nov  7  0:00)
Photon
1 52916U 22070C   22310.99919926 +002NGL1Q +00BQQFAF +002D393TH 17678
2 52916                          -0001SUGY +000452G4 +00012X0U     05

# Worst residual: 0.44 km
# MJD 59891.000000 (2022 Nov  8  0:00)
Photon
1 52916U 22070C   22311.99919926 +0027N5R8 +00CP0GNF +002M5ANFH 17678
2 52916                          -0001US94 +0003STZU +00010LDD     04

# Worst residual: 0.49 km
# MJD 59892.000000 (2022 Nov  9  0:00)
Photon
1 52916U 22070C   22312.99919926 +001RH66Y +00DKIOFH +002UO731H 17676
2 52916                          -0001VSRO +0003HWTV +0000YHAA     00

# Worst residual: 0.57 km
# MJD 59893.000000 (2022 Nov 10  0:00)
Photon
1 52916U 22070C   22313.99919926 +001B5KUK +00EDJAER +0032PMMKH 17672
2 52916                          -0001W421 +0003822P +0000WJMY     09

# Worst residual: 0.62 km
# MJD 59894.000000 (2022 Nov 11  0:00)
Photon
1 52916U 22070C   22314.99919926 +000UTQ9M +00F4AQQY +003AB16BH 17675
2 52916                          -0001VVNZ +0002Z3PJ +0000URLU     02

# Worst residual: 0.63 km
# MJD 59895.000000 (2022 Nov 12  0:00)
Photon
1 52916U 22070C   22315.99919926 +000ELUWW +00FT0AE3 +003HHOHTH 17679
2 52916                          -0001V7EY +0002QXLI +0000T4KZ     00

# Worst residual: 0.59 km
# MJD 59896.000000 (2022 Nov 13  0:00)
Photon
1 52916U 22070C   22316.99919926 -0001EK2L +00GFUBMK +003OAPUXH 17671
2 52916                          -0001U5W7 +0002JGNN +0000RM4U     05

# Worst residual: 0.54 km
# MJD 59897.000000 (2022 Nov 14  0:00)
Photon
1 52916U 22070C   22317.99919926 -000H4KEQ +00H0YKK6 +003UR7IYH 17676
2 52916                          -0001SSYG +0002CMBE +0000Q7ZO     06

# Worst residual: 0.50 km
# MJD 59898.000000 (2022 Nov 15  0:00)
Photon
1 52916U 22070C   22318.99919926 -000WHM32 +00HKI6L1 +0040W5ZEH 17678
2 52916                          -0001R63M +00026CCG +0000OY07     01

# Worst residual: 0.52 km
# MJD 59899.000000 (2022 Nov 16  0:00)
Photon
1 52916U 22070C   22319.99919926 -001BFHA5 +00I2LTAV +0046QKU3H 17679
2 52916                          -0001PAO3 +00020KV3 +0000NS46     05

# Worst residual: 0.60 km
# MJD 59900.000000 (2022 Nov 17  0:00)
Photon
1 52916U 22070C   22320.99919926 -001PW9F7 +00IJDPN3 +004CBFEOH 17674
2 52916                          -0001N7XG +0001VACQ +0000MQBD     05

# Worst residual: 0.74 km
# MJD 59901.000000 (2022 Nov 18  0:00)
Photon
1 52916U 22070C   22321.99919926 -0023UCON +00IYXSXQ +004HNP6JH 17676
2 52916                          -0001KZ41 +0001QFN0 +0000LSN9     02

# Worst residual: 0.91 km
# MJD 59902.000000 (2022 Nov 19  0:00)
Photon
1 52916U 22070C   22322.99919926 -002H8FXE +00JDDRMA +004MSE58H 17679
2 52916                          -0001ILGU +0001LZTO +0000KZ6I     04

# Worst residual: 1.03 km
# MJD 59903.000000 (2022 Nov 20  0:00)
Photon
1 52916U 22070C   22323.99919926 -002U1J3T +00JQT39W +004RQJ0SH 17675
2 52916                          -0001G4BP +0001HY7D +0000KA0G     09

# Worst residual: 1.07 km
# MJD 59904.000000 (2022 Nov 21  0:00)
Photon
1 52916U 22070C   22324.99919926 -00368Y77 +00K3B3V7 +004WJ5A3H 17670
2 52916                          -0001DL5A +0001EA5T +0000JP7P     05

# Worst residual: 1.05 km
# MJD 59905.000000 (2022 Nov 22  0:00)
Photon
1 52916U 22070C   22325.99919926 -003HUEHX +00KEYZVO +00517ARKH 17671
2 52916                          -0001B1JS +0001AZ0V +0000J8SE     07

# Worst residual: 1.02 km
# MJD 59906.000000 (2022 Nov 23  0:00)
Photon
1 52916U 22070C   22326.99919926 -003STZST +00KPVR9R +0055S0TAH 17678
2 52916                          -00018J9F +00017ZXC +0000IWLQ     02

# Worst residual: 1.06 km
# MJD 59907.000000 (2022 Nov 24  0:00)
Photon
1 52916U 22070C   22327.99919926 -004388WF +00L0458C +005AAASJH 17672
2 52916                          -000163ZW +00015BOU +0000IOBU     02

# Worst residual: 1.15 km
# MJD 59908.000000 (2022 Nov 25  0:00)
Photon
1 52916U 22070C   22328.99919926 -004D22MJ +00L9QL7A +005ER08CH 17675
2 52916                          -00013T94 +00012WRW +0000IJEJ     06

# Worst residual: 1.23 km
# MJD 59909.000000 (2022 Nov 26  0:00)
Photon
1 52916U 22070C   22329.99919926 -004MCOZX +00LIT3XE +005J6UVLH 17677
2 52916                          -00011O38 +00010PC7 +0000IH26     05

# Worst residual: 1.21 km
# MJD 59910.000000 (2022 Nov 27  0:00)
Photon
1 52916U 22070C   22330.99919926 -004V5IOS +00LRD9J5 +005NMD7VH 17676
2 52916                          -0000ZOYV +0000YNES +0000IGEH     06
Avg worst resid: 0.69 km
Worst residual in entire run: 1.23 km on MJD 59909.0
       1     3     10    30    100   300   1K    3K    10K   km
    22     8     0     0     0     0     0     0     0     0
